CCSDS_OMM_VERS = 2.0
CREATION_DATE  = 
ORIGINATOR     = 

OBJECT_NAME    = ATLAS CENTAUR R/B
OBJECT_ID      = 1972-065B
CENTER_NAME    = EARTH
REF_FRAME      = TEME
TIME_SYSTEM    = UTC
MEAN_ELEMENT_THEORY = SGP/SGP4

EPOCH          = 2026-03-20T12:05:50.585280
MEAN_MOTION    = 14.77716471
ECCENTRICITY   = .00328687
INCLINATION    = 35.0005
RA_OF_ASC_NODE = 242.3754
ARG_OF_PERICENTER = 101.2203
MEAN_ANOMALY   = 259.2194

EPHEMERIS_TYPE = 0
CLASSIFICATION_TYPE = U
NORAD_CAT_ID   = 6155
ELEMENT_SET_NO = 999
REV_AT_EPOCH   = 84286
BSTAR          = .17194506E-3
MEAN_MOTION_DOT = .1239E-4
MEAN_MOTION_DDOT = 0

CCSDS_OMM_VERS = 2.0
CREATION_DATE  = 
ORIGINATOR     = 

OBJECT_NAME    = SL-8 R/B
OBJECT_ID      = 1975-112B
CENTER_NAME    = EARTH
REF_FRAME      = TEME
TIME_SYSTEM    = UTC
MEAN_ELEMENT_THEORY = SGP/SGP4

EPOCH          = 2026-03-20T11:50:31.950240
MEAN_MOTION    = 14.38209812
ECCENTRICITY   = .00144513
INCLINATION    = 74.0637
RA_OF_ASC_NODE = 359.0398
ARG_OF_PERICENTER = 87.7386
MEAN_ANOMALY   = 272.5423

EPHEMERIS_TYPE = 0
CLASSIFICATION_TYPE = U
NORAD_CAT_ID   = 8459
ELEMENT_SET_NO = 999
REV_AT_EPOCH   = 63342
BSTAR          = .81219613E-4
MEAN_MOTION_DOT = .221E-5
MEAN_MOTION_DDOT = 0

CCSDS_OMM_VERS = 2.0
CREATION_DATE  = 
ORIGINATOR     = 

OBJECT_NAME    = SL-3 R/B
OBJECT_ID      = 1977-057B
CENTER_NAME    = EARTH
REF_FRAME      = TEME
TIME_SYSTEM    = UTC
MEAN_ELEMENT_THEORY = SGP/SGP4

EPOCH          = 2026-03-20T18:56:48.749568
MEAN_MOTION    = 15.45792117
ECCENTRICITY   = .0006334
INCLINATION    = 97.5784
RA_OF_ASC_NODE = 252.2024
ARG_OF_PERICENTER = 237.7632
MEAN_ANOMALY   = 122.3003

EPHEMERIS_TYPE = 0
CLASSIFICATION_TYPE = U
NORAD_CAT_ID   = 10114
ELEMENT_SET_NO = 999
REV_AT_EPOCH   = 67004
BSTAR          = .25958E-3
MEAN_MOTION_DOT = .12491E-3
MEAN_MOTION_DDOT = 0

CCSDS_OMM_VERS = 2.0
CREATION_DATE  = 
ORIGINATOR     = 

OBJECT_NAME    = SEASAT 1
OBJECT_ID      = 1978-064A
CENTER_NAME    = EARTH
REF_FRAME      = TEME
TIME_SYSTEM    = UTC
MEAN_ELEMENT_THEORY = SGP/SGP4

EPOCH          = 2026-03-20T15:11:14.606016
MEAN_MOTION    = 14.46168830
ECCENTRICITY   = .00025
INCLINATION    = 108.0087
RA_OF_ASC_NODE = 148.4618
ARG_OF_PERICENTER = 280.8912
MEAN_ANOMALY   = 79.1952

EPHEMERIS_TYPE = 0
CLASSIFICATION_TYPE = U
NORAD_CAT_ID   = 10967
ELEMENT_SET_NO = 999
REV_AT_EPOCH   = 50809
BSTAR          = .97282E-4
MEAN_MOTION_DOT = .211E-5
MEAN_MOTION_DDOT = 0

CCSDS_OMM_VERS = 2.0
CREATION_DATE  = 
ORIGINATOR     = 

OBJECT_NAME    = SL-14 R/B
OBJECT_ID      = 1979-011B
CENTER_NAME    = EARTH
REF_FRAME      = TEME
TIME_SYSTEM    = UTC
MEAN_ELEMENT_THEORY = SGP/SGP4

EPOCH          = 2026-03-20T09:05:18.682080
MEAN_MOTION    = 14.91920753
ECCENTRICITY   = .00167167
INCLINATION    = 82.5204
RA_OF_ASC_NODE = 86.4247
ARG_OF_PERICENTER = 27.1182
MEAN_ANOMALY   = 333.0907

EPHEMERIS_TYPE = 0
CLASSIFICATION_TYPE = U
NORAD_CAT_ID   = 11267
ELEMENT_SET_NO = 999
REV_AT_EPOCH   = 53037
BSTAR          = .51713979E-4
MEAN_MOTION_DOT = .55E-5
MEAN_MOTION_DDOT = 0

CCSDS_OMM_VERS = 2.0
CREATION_DATE  = 
ORIGINATOR     = 

OBJECT_NAME    = SL-8 R/B
OBJECT_ID      = 1979-089B
CENTER_NAME    = EARTH
REF_FRAME      = TEME
TIME_SYSTEM    = UTC
MEAN_ELEMENT_THEORY = SGP/SGP4

EPOCH          = 2026-03-20T16:54:08.639424
MEAN_MOTION    = 14.42356862
ECCENTRICITY   = .0016982
INCLINATION    = 74.0674
RA_OF_ASC_NODE = 70.6520
ARG_OF_PERICENTER = 242.1064
MEAN_ANOMALY   = 117.8373

EPHEMERIS_TYPE = 0
CLASSIFICATION_TYPE = U
NORAD_CAT_ID   = 11574
ELEMENT_SET_NO = 999
REV_AT_EPOCH   = 43769
BSTAR          = .54641E-4
MEAN_MOTION_DOT = .154E-5
MEAN_MOTION_DDOT = 0

CCSDS_OMM_VERS = 2.0
CREATION_DATE  = 
ORIGINATOR     = 

OBJECT_NAME    = SL-14 R/B
OBJECT_ID      = 1980-005B
CENTER_NAME    = EARTH
REF_FRAME      = TEME
TIME_SYSTEM    = UTC
MEAN_ELEMENT_THEORY = SGP/SGP4

EPOCH          = 2026-03-20T07:57:33.505056
MEAN_MOTION    = 14.90941572
ECCENTRICITY   = .00169606
INCLINATION    = 82.5124
RA_OF_ASC_NODE = 297.1403
ARG_OF_PERICENTER = 124.7812
MEAN_ANOMALY   = 235.5007

EPHEMERIS_TYPE = 0
CLASSIFICATION_TYPE = U
NORAD_CAT_ID   = 11672
ELEMENT_SET_NO = 999
REV_AT_EPOCH   = 47807
BSTAR          = .4385498E-4
MEAN_MOTION_DOT = .459E-5
MEAN_MOTION_DDOT = 0

CCSDS_OMM_VERS = 2.0
CREATION_DATE  = 
ORIGINATOR     = 

OBJECT_NAME    = SL-8 R/B
OBJECT_ID      = 1981-003B
CENTER_NAME    = EARTH
REF_FRAME      = TEME
TIME_SYSTEM    = UTC
MEAN_ELEMENT_THEORY = SGP/SGP4

EPOCH          = 2026-03-20T19:03:24.275808
MEAN_MOTION    = 15.11419752
ECCENTRICITY   = .0261411
INCLINATION    = 82.9353
RA_OF_ASC_NODE = 279.7531
ARG_OF_PERICENTER = 139.9332
MEAN_ANOMALY   = 222.1513

EPHEMERIS_TYPE = 0
CLASSIFICATION_TYPE = U
NORAD_CAT_ID   = 12139
ELEMENT_SET_NO = 999
REV_AT_EPOCH   = 31635
BSTAR          = .54383E-3
MEAN_MOTION_DOT = .2147E-3
MEAN_MOTION_DDOT = 0

CCSDS_OMM_VERS = 2.0
CREATION_DATE  = 
ORIGINATOR     = 

OBJECT_NAME    = SL-3 R/B
OBJECT_ID      = 1981-046B
CENTER_NAME    = EARTH
REF_FRAME      = TEME
TIME_SYSTEM    = UTC
MEAN_ELEMENT_THEORY = SGP/SGP4

EPOCH          = 2026-03-20T19:33:37.459296
MEAN_MOTION    = 15.42249790
ECCENTRICITY   = .0018697
INCLINATION    = 81.2279
RA_OF_ASC_NODE = 276.3802
ARG_OF_PERICENTER = 343.3866
MEAN_ANOMALY   = 16.6762

EPHEMERIS_TYPE = 0
CLASSIFICATION_TYPE = U
NORAD_CAT_ID   = 12465
ELEMENT_SET_NO = 999
REV_AT_EPOCH   = 44014
BSTAR          = .24382E-3
MEAN_MOTION_DOT = .10576E-3
MEAN_MOTION_DDOT = 0

CCSDS_OMM_VERS = 2.0
CREATION_DATE  = 
ORIGINATOR     = 

OBJECT_NAME    = SL-3 R/B
OBJECT_ID      = 1981-103B
CENTER_NAME    = EARTH
REF_FRAME      = TEME
TIME_SYSTEM    = UTC
MEAN_ELEMENT_THEORY = SGP/SGP4

EPOCH          = 2026-03-20T19:42:33.289632
MEAN_MOTION    = 15.21501006
ECCENTRICITY   = .0012431
INCLINATION    = 81.1606
RA_OF_ASC_NODE = 200.3741
ARG_OF_PERICENTER = 246.2742
MEAN_ANOMALY   = 113.7186

EPHEMERIS_TYPE = 0
CLASSIFICATION_TYPE = U
NORAD_CAT_ID   = 12904
ELEMENT_SET_NO = 999
REV_AT_EPOCH   = 97492
BSTAR          = .24154E-3
MEAN_MOTION_DOT = .5469E-4
MEAN_MOTION_DDOT = 0

CCSDS_OMM_VERS = 2.0
CREATION_DATE  = 
ORIGINATOR     = 

OBJECT_NAME    = SL-3 R/B
OBJECT_ID      = 1982-013B
CENTER_NAME    = EARTH
REF_FRAME      = TEME
TIME_SYSTEM    = UTC
MEAN_ELEMENT_THEORY = SGP/SGP4

EPOCH          = 2026-03-20T19:47:37.871232
MEAN_MOTION    = 15.22113635
ECCENTRICITY   = .0023225
INCLINATION    = 81.1748
RA_OF_ASC_NODE = 147.7203
ARG_OF_PERICENTER = 140.5563
MEAN_ANOMALY   = 219.7366

EPHEMERIS_TYPE = 0
CLASSIFICATION_TYPE = U
NORAD_CAT_ID   = 13068
ELEMENT_SET_NO = 999
REV_AT_EPOCH   = 40604
BSTAR          = .14222E-3
MEAN_MOTION_DOT = .3307E-4
MEAN_MOTION_DDOT = 0

CCSDS_OMM_VERS = 2.0
CREATION_DATE  = 
ORIGINATOR     = 

OBJECT_NAME    = SL-3 R/B
OBJECT_ID      = 1982-039B
CENTER_NAME    = EARTH
REF_FRAME      = TEME
TIME_SYSTEM    = UTC
MEAN_ELEMENT_THEORY = SGP/SGP4

EPOCH          = 2026-03-20T18:55:31.749024
MEAN_MOTION    = 15.10139888
ECCENTRICITY   = .0029147
INCLINATION    = 81.1579
RA_OF_ASC_NODE = 203.1650
ARG_OF_PERICENTER = 288.0039
MEAN_ANOMALY   = 71.8010

EPHEMERIS_TYPE = 0
CLASSIFICATION_TYPE = U
NORAD_CAT_ID   = 13154
ELEMENT_SET_NO = 999
REV_AT_EPOCH   = 38331
BSTAR          = .15405E-3
MEAN_MOTION_DOT = .2559E-4
MEAN_MOTION_DDOT = 0

