ATLAS CENTAUR R/B       
1 06155U 72065B   26079.50405770  .00001239  00000+0  17195-3 0  9999
2 06155  35.0005 242.3754 0032868 101.2203 259.2194 14.77716471842860
SL-8 R/B                
1 08459U 75112B   26079.49342535  .00000221  00000+0  81220-4 0  9992
2 08459  74.0637 359.0398 0014451  87.7386 272.5423 14.38209812633427
SL-3 R/B                
1 10114U 77057B   26079.78945312  .00012491  00000+0  25958-3 0  9994
2 10114  97.5784 252.2024 0006334 237.7632 122.3003 15.45792117670042
SEASAT 1                
1 10967U 78064A   26079.63280794  .00000211  00000+0  97282-4 0  9996
2 10967 108.0087 148.4618 0002500 280.8912  79.1952 14.46168830508094
SL-14 R/B               
1 11267U 79011B   26079.37868845  .00000550  00000+0  51714-4 0  9999
2 11267  82.5204  86.4247 0016716  27.1182 333.0907 14.91920753530377
SL-8 R/B                
1 11574U 79089B   26079.70426666  .00000154  00000+0  54641-4 0  9995
2 11574  74.0674  70.6520 0016982 242.1064 117.8373 14.42356862437693
SL-14 R/B               
1 11672U 80005B   26079.33163779  .00000459  00000+0  43855-4 0  9999
2 11672  82.5124 297.1403 0016960 124.7812 235.5007 14.90941572478074
SL-8 R/B                
1 12139U 81003B   26079.79403097  .00021470  00000+0  54383-3 0  9990
2 12139  82.9353 279.7531 0261411 139.9332 222.1513 15.11419752316357
SL-3 R/B                
1 12465U 81046B   26079.81501689  .00010576  00000+0  24382-3 0  9999
2 12465  81.2279 276.3802 0018697 343.3866  16.6762 15.42249790440145
SL-3 R/B                
1 12904U 81103B   26079.82121863  .00005469  00000+0  24154-3 0  9996
2 12904  81.1606 200.3741 0012431 246.2742 113.7186 15.21501006974924
SL-3 R/B                
1 13068U 82013B   26079.82474388  .00003307  00000+0  14222-3 0  9996
2 13068  81.1748 147.7203 0023225 140.5563 219.7366 15.22113635406048
SL-3 R/B                
1 13154U 82039B   26079.78856191  .00002559  00000+0  15405-3 0  9993
2 13154  81.1579 203.1650 0029147 288.0039  71.8010 15.10139888383316
